[
    {
        "Altitude(m)": 576158.8281785019,
        "Argument of Periapsis(deg)": -0.037671934638287344,
        "Eccentricity": 0.0,
        "Inclination(deg)": 97.0,
        "Latitude(deg)": -33.70532412510516,
        "Longitude(deg)": 20.743827753597166,
        "Mean Anomaly(deg)": -33.68316121802084,
        "RAAN(deg)": 120.00991175603085,
        "Satellite Name": "Starlink Shell 3 1859",
        "Satellite Number": 1859,
        "Semi-Major Axis(m)": 6938478.169268562,
        "Time(s)": 950
    },
    {
        "Altitude(m)": 575910.8358668736,
        "Argument of Periapsis(deg)": -0.03806848131869037,
        "Eccentricity": 0.0,
        "Inclination(deg)": 97.0,
        "Latitude(deg)": -33.086092414419575,
        "Longitude(deg)": 20.593309904062124,
        "Mean Anomaly(deg)": -33.05768502031583,
        "RAAN(deg)": 120.01001609030484,
        "Satellite Name": "Starlink Shell 3 1859",
        "Satellite Number": 1859,
        "Semi-Major Axis(m)": 6938478.169268562,
        "Time(s)": 960
    },
    {
        "Altitude(m)": 575664.0465730247,
        "Argument of Periapsis(deg)": -0.0384650279990934,
        "Eccentricity": 0.0,
        "Inclination(deg)": 97.0,
        "Latitude(deg)": -32.46667718911241,
        "Longitude(deg)": 20.44429886151105,
        "Mean Anomaly(deg)": -32.43220882261072,
        "RAAN(deg)": 120.01012042457887,
        "Satellite Name": "Starlink Shell 3 1859",
        "Satellite Number": 1859,
        "Semi-Major Axis(m)": 6938478.169268562,
        "Time(s)": 970
    },
    {
        "Altitude(m)": 575418.5539186763,
        "Argument of Periapsis(deg)": -0.03886157467949641,
        "Eccentricity": 0.0,
        "Inclination(deg)": 97.0,
        "Latitude(deg)": -31.847082501453972,
        "Longitude(deg)": 20.29673913355702,
        "Mean Anomaly(deg)": -31.80673262490571,
        "RAAN(deg)": 120.01022475885289,
        "Satellite Name": "Starlink Shell 3 1859",
        "Satellite Number": 1859,
        "Semi-Major Axis(m)": 6938478.169268562,
        "Time(s)": 980
    },
    {
        "Altitude(m)": 575174.4507736007,
        "Argument of Periapsis(deg)": -0.03925812135989944,
        "Eccentricity": 0.0,
        "Inclination(deg)": 97.0,
        "Latitude(deg)": -31.2273123114512,
        "Longitude(deg)": 20.150577858801697,
        "Mean Anomaly(deg)": -31.18125642720072,
        "RAAN(deg)": 120.01032909312688,
        "Satellite Name": "Starlink Shell 3 1859",
        "Satellite Number": 1859,
        "Semi-Major Axis(m)": 6938478.169268562,
        "Time(s)": 990
    }
]